start=new Date('2022-06-23T00:00:00.000Z').valueOf();
sats=[{"EPOCH":"2022-06-22T22:00:00.999936","COUNTRY_CODE":"US","PERIAPSIS":"538.319","MEAN_ELEMENT_THEORY":"SGP4","MEAN_MOTION_DOT":"-0.00000374","APOAPSIS":"541.148","MEAN_ANOMALY":"116.8730","REF_FRAME":"TEME","ELEMENT_SET_NO":"999","BSTAR":"-0.00000536510000","RA_OF_ASC_NODE":"325.4147","MEAN_MOTION":"15.08843818","CENTER_NAME":"EARTH","OBJECT_NAME":"STARLINK-3519","RCS_SIZE":"LARGE","ARG_OF_PERICENTER":"43.8129","LAUNCH_DATE":"2022-03-03","CLASSIFICATION_TYPE":"U","FILE":"3500001","ECCENTRICITY":"0.00020450","INCLINATION":"53.2181","PERIOD":"95.437","OBJECT_ID":"2022-022AQ","DECAY_DATE":null,"SEMIMAJOR_AXIS":"6917.869","REV_AT_EPOCH":"130","SITE":"AFETR","OBJECT_TYPE":"PAYLOAD","NORAD_CAT_ID":"51890","MEAN_MOTION_DDOT":"0.0000000000000","TIME_SYSTEM":"UTC","EPHEMERIS_TYPE":"0","GP_ID":"206649436","TLE_LINE2":"2 51890  53.2181 325.4147 0002045  43.8129 116.8730 15.08843818  1305","TLE_LINE1":"1 51890U 22022AQ  22173.91667824 -.00000374  00000-0 -53651-5 0  9990"},{"MEAN_ELEMENT_THEORY":"SGP4","COUNTRY_CODE":"US","PERIAPSIS":"538.519","EPOCH":"2022-06-22T22:00:00.999936","APOAPSIS":"540.977","MEAN_MOTION_DOT":"-0.00001072","BSTAR":"-0.00004926300000","RA_OF_ASC_NODE":"325.4075","ELEMENT_SET_NO":"999","REF_FRAME":"TEME","MEAN_ANOMALY":"177.1320","RCS_SIZE":"LARGE","OBJECT_NAME":"STARLINK-3549","CENTER_NAME":"EARTH","MEAN_MOTION":"15.08839194","LAUNCH_DATE":"2022-03-03","ARG_OF_PERICENTER":"43.6032","ECCENTRICITY":"0.00017770","CLASSIFICATION_TYPE":"U","FILE":"3500001","PERIOD":"95.438","INCLINATION":"53.2162","SEMIMAJOR_AXIS":"6917.883","DECAY_DATE":null,"OBJECT_ID":"2022-022AR","REV_AT_EPOCH":"130","SITE":"AFETR","NORAD_CAT_ID":"51891","OBJECT_TYPE":"PAYLOAD","MEAN_MOTION_DDOT":"0.0000000000000","GP_ID":"206649686","EPHEMERIS_TYPE":"0","TIME_SYSTEM":"UTC","TLE_LINE1":"1 51891U 22022AR  22173.91667824 -.00001072  00000-0 -49263-4 0  9990","TLE_LINE2":"2 51891  53.2162 325.4075 0001777  43.6032 177.1320 15.08839194  1304"},{"ELEMENT_SET_NO":"999","REF_FRAME":"TEME","MEAN_ANOMALY":"140.2953","RA_OF_ASC_NODE":"325.4109","BSTAR":"0.00267900000000","MEAN_MOTION_DOT":"0.00042566","APOAPSIS":"541.236","COUNTRY_CODE":"US","PERIAPSIS":"538.464","EPOCH":"2022-06-22T22:00:00.999936","MEAN_ELEMENT_THEORY":"SGP4","PERIOD":"95.440","INCLINATION":"53.2187","FILE":"3500001","CLASSIFICATION_TYPE":"U","ECCENTRICITY":"0.00020040","ARG_OF_PERICENTER":"40.4041","LAUNCH_DATE":"2022-03-03","MEAN_MOTION":"15.08805808","CENTER_NAME":"EARTH","RCS_SIZE":"LARGE","OBJECT_NAME":"STARLINK-3587","SITE":"AFETR","REV_AT_EPOCH":"130","OBJECT_ID":"2022-022AS","DECAY_DATE":null,"SEMIMAJOR_AXIS":"6917.985","TLE_LINE2":"2 51892  53.2187 325.4109 0002004  40.4041 140.2953 15.08805808  1307","TLE_LINE1":"1 51892U 22022AS  22173.91667824  .00042566  00000-0  26790-2 0  9990","TIME_SYSTEM":"UTC","EPHEMERIS_TYPE":"0","GP_ID":"206650938","MEAN_MOTION_DDOT":"0.0000000000000","OBJECT_TYPE":"PAYLOAD","NORAD_CAT_ID":"51892"},{"APOAPSIS":"540.560","MEAN_MOTION_DOT":"0.00006870","MEAN_ELEMENT_THEORY":"SGP4","COUNTRY_CODE":"US","PERIAPSIS":"538.816","EPOCH":"2022-06-22T22:00:00.999936","BSTAR":"0.00044906000000","RA_OF_ASC_NODE":"325.4059","REF_FRAME":"TEME","ELEMENT_SET_NO":"999","MEAN_ANOMALY":"204.3552","LAUNCH_DATE":"2022-03-03","ARG_OF_PERICENTER":"56.2815","RCS_SIZE":"LARGE","OBJECT_NAME":"STARLINK-3579","MEAN_MOTION":"15.08858740","CENTER_NAME":"EARTH","PERIOD":"95.436","INCLINATION":"53.2159","ECCENTRICITY":"0.00012600","FILE":"3500001","CLASSIFICATION_TYPE":"U","REV_AT_EPOCH":"130","DECAY_DATE":null,"SEMIMAJOR_AXIS":"6917.823","OBJECT_ID":"2022-022AT","SITE":"AFETR","MEAN_MOTION_DDOT":"0.0000000000000","NORAD_CAT_ID":"51893","OBJECT_TYPE":"PAYLOAD","TLE_LINE1":"1 51893U 22022AT  22173.91667824  .00006870  00000-0  44906-3 0  9999","TLE_LINE2":"2 51893  53.2159 325.4059 0001260  56.2815 204.3552 15.08858740  1308","EPHEMERIS_TYPE":"0","GP_ID":"206650688","TIME_SYSTEM":"UTC"},{"MEAN_MOTION_DOT":"-0.00008115","APOAPSIS":"540.850","EPOCH":"2022-06-22T22:00:00.999936","COUNTRY_CODE":"US","PERIAPSIS":"538.577","MEAN_ELEMENT_THEORY":"SGP4","MEAN_ANOMALY":"194.5044","REF_FRAME":"TEME","ELEMENT_SET_NO":"999","BSTAR":"-0.00049221000000","RA_OF_ASC_NODE":"325.4067","ARG_OF_PERICENTER":"46.1848","LAUNCH_DATE":"2022-03-03","MEAN_MOTION":"15.08850428","CENTER_NAME":"EARTH","RCS_SIZE":"LARGE","OBJECT_NAME":"STARLINK-3595","INCLINATION":"53.2165","PERIOD":"95.437","CLASSIFICATION_TYPE":"U","FILE":"3500001","ECCENTRICITY":"0.00016430","REV_AT_EPOCH":"130","OBJECT_ID":"2022-022AU","DECAY_DATE":null,"SEMIMAJOR_AXIS":"6917.849","SITE":"AFETR","MEAN_MOTION_DDOT":"0.0000000000000","OBJECT_TYPE":"PAYLOAD","NORAD_CAT_ID":"51894","TLE_LINE2":"2 51894  53.2165 325.4067 0001643  46.1848 194.5044 15.08850428  1305","TLE_LINE1":"1 51894U 22022AU  22173.91667824 -.00008115  00000-0 -49221-3 0  9991","TIME_SYSTEM":"UTC","EPHEMERIS_TYPE":"0","GP_ID":"206649937"},{"FILE":"3500001","CLASSIFICATION_TYPE":"U","ECCENTRICITY":"0.00018530","INCLINATION":"53.2157","PERIOD":"95.438","CENTER_NAME":"EARTH","MEAN_MOTION":"15.08835680","RCS_SIZE":"LARGE","OBJECT_NAME":"STARLINK-3594","ARG_OF_PERICENTER":"50.9246","LAUNCH_DATE":"2022-03-03","MEAN_ANOMALY":"229.6845","REF_FRAME":"TEME","ELEMENT_SET_NO":"999","RA_OF_ASC_NODE":"325.4062","BSTAR":"0.00241390000000","EPOCH":"2022-06-22T22:00:00.999936","COUNTRY_CODE":"US","PERIAPSIS":"538.477","MEAN_ELEMENT_THEORY":"SGP4","MEAN_MOTION_DOT":"0.00038334","APOAPSIS":"541.040","TIME_SYSTEM":"UTC","GP_ID":"206650187","EPHEMERIS_TYPE":"0","TLE_LINE2":"2 51895  53.2157 325.4062 0001853  50.9246 229.6845 15.08835680  1302","TLE_LINE1":"1 51895U 22022AV  22173.91667824  .00038334  00000-0  24139-2 0  9996","OBJECT_TYPE":"PAYLOAD","NORAD_CAT_ID":"51895","MEAN_MOTION_DDOT":"0.0000000000000","SITE":"AFETR","OBJECT_ID":"2022-022AV","DECAY_DATE":null,"SEMIMAJOR_AXIS":"6917.894","REV_AT_EPOCH":"130"},{"NORAD_CAT_ID":"51896","OBJECT_TYPE":"PAYLOAD","MEAN_MOTION_DDOT":"0.0000000000000","GP_ID":"206650438","EPHEMERIS_TYPE":"0","TIME_SYSTEM":"UTC","TLE_LINE1":"1 51896U 22022AW  22173.91667824 -.00008496  00000-0 -51640-3 0  9993","TLE_LINE2":"2 51896  53.2153 325.4064 0001675  46.8581 228.6538 15.08833237  1303","SEMIMAJOR_AXIS":"6917.901","DECAY_DATE":null,"OBJECT_ID":"2022-022AW","REV_AT_EPOCH":"130","SITE":"AFETR","OBJECT_NAME":"STARLINK-3593","RCS_SIZE":"LARGE","MEAN_MOTION":"15.08833237","CENTER_NAME":"EARTH","LAUNCH_DATE":"2022-03-03","ARG_OF_PERICENTER":"46.8581","ECCENTRICITY":"0.00016750","CLASSIFICATION_TYPE":"U","FILE":"3500001","INCLINATION":"53.2153","PERIOD":"95.438","MEAN_ELEMENT_THEORY":"SGP4","EPOCH":"2022-06-22T22:00:00.999936","COUNTRY_CODE":"US","PERIAPSIS":"538.607","APOAPSIS":"540.925","MEAN_MOTION_DOT":"-0.00008496","RA_OF_ASC_NODE":"325.4064","BSTAR":"-0.00051640000000","MEAN_ANOMALY":"228.6538","REF_FRAME":"TEME","ELEMENT_SET_NO":"999"},{"TIME_SYSTEM":"UTC","GP_ID":"206651189","EPHEMERIS_TYPE":"0","TLE_LINE2":"2 51897  53.2148 325.4059 0001352  63.6568 237.0469 15.08819388  1304","TLE_LINE1":"1 51897U 22022AX  22173.91667824  .00036143  00000-0  22787-2 0  9991","OBJECT_TYPE":"PAYLOAD","NORAD_CAT_ID":"51897","MEAN_MOTION_DDOT":"0.0000000000000","SITE":"AFETR","OBJECT_ID":"2022-022AX","DECAY_DATE":null,"SEMIMAJOR_AXIS":"6917.943","REV_AT_EPOCH":"130","CLASSIFICATION_TYPE":"U","FILE":"3500001","ECCENTRICITY":"0.00013520","PERIOD":"95.439","INCLINATION":"53.2148","MEAN_MOTION":"15.08819388","CENTER_NAME":"EARTH","RCS_SIZE":"LARGE","OBJECT_NAME":"STARLINK-3598","ARG_OF_PERICENTER":"63.6568","LAUNCH_DATE":"2022-03-03","REF_FRAME":"TEME","ELEMENT_SET_NO":"999","MEAN_ANOMALY":"237.0469","BSTAR":"0.00227870000000","RA_OF_ASC_NODE":"325.4059","COUNTRY_CODE":"US","PERIAPSIS":"538.873","EPOCH":"2022-06-22T22:00:00.999936","MEAN_ELEMENT_THEORY":"SGP4","MEAN_MOTION_DOT":"0.00036143","APOAPSIS":"540.744"},{"ECCENTRICITY":"0.00013460","CLASSIFICATION_TYPE":"U","FILE":"3500001","PERIOD":"95.438","INCLINATION":"53.2148","RCS_SIZE":"LARGE","OBJECT_NAME":"STARLINK-3597","MEAN_MOTION":"15.08839998","CENTER_NAME":"EARTH","LAUNCH_DATE":"2022-03-03","ARG_OF_PERICENTER":"70.9754","RA_OF_ASC_NODE":"325.4061","BSTAR":"0.00229620000000","ELEMENT_SET_NO":"999","REF_FRAME":"TEME","MEAN_ANOMALY":"249.6642","MEAN_ELEMENT_THEORY":"SGP4","COUNTRY_CODE":"US","PERIAPSIS":"538.814","EPOCH":"2022-06-22T22:00:00.999936","APOAPSIS":"540.677","MEAN_MOTION_DOT":"0.00036445","EPHEMERIS_TYPE":"0","GP_ID":"206649437","TIME_SYSTEM":"UTC","TLE_LINE1":"1 51898U 22022AY  22173.91667824  .00036445  00000-0  22962-2 0  9992","TLE_LINE2":"2 51898  53.2148 325.4061 0001346  70.9754 249.6642 15.08839998  1300","NORAD_CAT_ID":"51898","OBJECT_TYPE":"PAYLOAD","MEAN_MOTION_DDOT":"0.0000000000000","SITE":"AFETR","SEMIMAJOR_AXIS":"6917.880","DECAY_DATE":null,"OBJECT_ID":"2022-022AY","REV_AT_EPOCH":"130"},{"MEAN_MOTION_DOT":"0.00048003","APOAPSIS":"541.132","COUNTRY_CODE":"US","PERIAPSIS":"538.536","EPOCH":"2022-06-22T22:00:00.999936","MEAN_ELEMENT_THEORY":"SGP4","REF_FRAME":"TEME","ELEMENT_SET_NO":"999","MEAN_ANOMALY":"148.2439","RA_OF_ASC_NODE":"355.4266","BSTAR":"0.00301610000000","ARG_OF_PERICENTER":"47.4531","LAUNCH_DATE":"2022-03-09","MEAN_MOTION":"15.08811039","CENTER_NAME":"EARTH","OBJECT_NAME":"STARLINK-3700","RCS_SIZE":"LARGE","PERIOD":"95.439","INCLINATION":"53.2168","CLASSIFICATION_TYPE":"U","FILE":"3500001","ECCENTRICITY":"0.00018760","REV_AT_EPOCH":"130","OBJECT_ID":"2022-025A","DECAY_DATE":null,"SEMIMAJOR_AXIS":"6917.969","SITE":"AFETR","MEAN_MOTION_DDOT":"0.0000000000000","OBJECT_TYPE":"PAYLOAD","NORAD_CAT_ID":"51956","TLE_LINE2":"2 51956  53.2168 355.4266 0001876  47.4531 148.2439 15.08811039  1301","TLE_LINE1":"1 51956U 22025A   22173.91667824  .00048003  00000-0  30161-2 0  9993","TIME_SYSTEM":"UTC","EPHEMERIS_TYPE":"0","GP_ID":"206650191"}];
